start=new Date('2021-08-23T00:00:00.000Z').valueOf();
sats=[{"REF_FRAME":"TEME","MEAN_MOTION_DDOT":"0.0000000000000","SITE":"AFETR","EPOCH":"2021-08-22T18:47:31.846272","FILE":"3101563","ECCENTRICITY":"0.00006670","LAUNCH_DATE":"2019-11-11","CLASSIFICATION_TYPE":"U","NORAD_CAT_ID":"44769","OBJECT_NAME":"STARLINK-1064","ARG_OF_PERICENTER":"48.8808","APOAPSIS":"474.848","TIME_SYSTEM":"UTC","OBJECT_TYPE":"PAYLOAD","PERIOD":"94.088","MEAN_ELEMENT_THEORY":"SGP4","RA_OF_ASC_NODE":"116.4271","SEMIMAJOR_AXIS":"6852.526","MEAN_MOTION":"15.30476742","TLE_LINE1":"1 44769U 19074BJ  21234.78300748  .00152716  00000-0  50196-2 0  9995","CENTER_NAME":"EARTH","PERIAPSIS":"473.934","BSTAR":"0.00501960000000","INCLINATION":"53.0006","ELEMENT_SET_NO":"999","RCS_SIZE":"LARGE","MEAN_MOTION_DOT":"0.00152716","TLE_LINE2":"2 44769  53.0006 116.4271 0000667  48.8808 311.2249 15.30476742 98102","OBJECT_ID":"2019-074BJ","GP_ID":"183269693","DECAY_DATE":null,"COUNTRY_CODE":"US","EPHEMERIS_TYPE":"0","MEAN_ANOMALY":"311.2249","REV_AT_EPOCH":"9810"},{"CENTER_NAME":"EARTH","PERIAPSIS":"540.497","BSTAR":"0.00019732000000","INCLINATION":"53.0033","MEAN_MOTION":"15.08323852","SEMIMAJOR_AXIS":"6919.458","TLE_LINE1":"1 44770U 19074BK  21234.92250120  .00002811  00000-0  19732-3 0  9993","DECAY_DATE":null,"MEAN_ANOMALY":"261.0130","REV_AT_EPOCH":"9807","EPHEMERIS_TYPE":"0","COUNTRY_CODE":"US","TLE_LINE2":"2 44770  53.0033 113.2597 0001194  99.0995 261.0130 15.08323852 98076","MEAN_MOTION_DOT":"0.00002811","RCS_SIZE":"LARGE","ELEMENT_SET_NO":"999","OBJECT_ID":"2019-074BK","GP_ID":"183269943","CLASSIFICATION_TYPE":"U","ECCENTRICITY":"0.00011940","LAUNCH_DATE":"2019-11-11","SITE":"AFETR","EPOCH":"2021-08-22T22:08:24.103680","MEAN_MOTION_DDOT":"0.0000000000000","REF_FRAME":"TEME","FILE":"3101563","RA_OF_ASC_NODE":"113.2597","PERIOD":"95.470","MEAN_ELEMENT_THEORY":"SGP4","ARG_OF_PERICENTER":"99.0995","NORAD_CAT_ID":"44770","OBJECT_NAME":"STARLINK-1065","TIME_SYSTEM":"UTC","OBJECT_TYPE":"PAYLOAD","APOAPSIS":"542.150"},{"ARG_OF_PERICENTER":"72.4487","OBJECT_NAME":"STARLINK-1067","NORAD_CAT_ID":"44771","OBJECT_TYPE":"PAYLOAD","TIME_SYSTEM":"UTC","APOAPSIS":"548.595","RA_OF_ASC_NODE":"117.5044","PERIOD":"95.592","MEAN_ELEMENT_THEORY":"SGP4","SITE":"AFETR","EPOCH":"2021-08-22T22:40:40.402848","MEAN_MOTION_DDOT":"0.0000000000000","REF_FRAME":"TEME","FILE":"3101563","CLASSIFICATION_TYPE":"U","ECCENTRICITY":"0.00020130","LAUNCH_DATE":"2019-11-11","TLE_LINE2":"2 44771  53.0559 117.5044 0002013  72.4487 287.6722 15.06404041 98031","MEAN_MOTION_DOT":"0.00000844","RCS_SIZE":"LARGE","ELEMENT_SET_NO":"999","OBJECT_ID":"2019-074BL","GP_ID":"183270194","DECAY_DATE":null,"MEAN_ANOMALY":"287.6722","REV_AT_EPOCH":"9803","COUNTRY_CODE":"US","EPHEMERIS_TYPE":"0","MEAN_MOTION":"15.06404041","SEMIMAJOR_AXIS":"6925.336","TLE_LINE1":"1 44771U 19074BL  21234.94491207  .00000844  00000-0  75547-4 0  9990","CENTER_NAME":"EARTH","PERIAPSIS":"545.807","BSTAR":"0.00007554700000","INCLINATION":"53.0559"},{"BSTAR":"0.00009929600000","PERIAPSIS":"545.840","INCLINATION":"53.0547","CENTER_NAME":"EARTH","TLE_LINE1":"1 44772U 19074BM  21234.67031604  .00001198  00000-0  99296-4 0  9992","MEAN_MOTION":"15.06398378","SEMIMAJOR_AXIS":"6925.354","REV_AT_EPOCH":"9826","MEAN_ANOMALY":"275.7377","EPHEMERIS_TYPE":"0","COUNTRY_CODE":"US","DECAY_DATE":null,"GP_ID":"183270445","OBJECT_ID":"2019-074BM","TLE_LINE2":"2 44772  53.0547  98.7399 0001991  84.3838 275.7377 15.06398378 98262","MEAN_MOTION_DOT":"0.00001198","RCS_SIZE":"LARGE","ELEMENT_SET_NO":"999","CLASSIFICATION_TYPE":"U","LAUNCH_DATE":"2019-11-11","ECCENTRICITY":"0.00019910","FILE":"3101563","EPOCH":"2021-08-22T16:05:15.305856","SITE":"AFETR","MEAN_MOTION_DDOT":"0.0000000000000","REF_FRAME":"TEME","RA_OF_ASC_NODE":"98.7399","MEAN_ELEMENT_THEORY":"SGP4","PERIOD":"95.592","OBJECT_TYPE":"PAYLOAD","TIME_SYSTEM":"UTC","APOAPSIS":"548.597","ARG_OF_PERICENTER":"84.3838","OBJECT_NAME":"STARLINK-1068","NORAD_CAT_ID":"44772"},{"FILE":"3101345","REF_FRAME":"TEME","MEAN_MOTION_DDOT":"0.0000000000000","SITE":"AFETR","EPOCH":"2021-08-22T11:42:33.216480","ECCENTRICITY":"0.00011570","LAUNCH_DATE":"2020-01-07","CLASSIFICATION_TYPE":"U","APOAPSIS":"548.029","TIME_SYSTEM":"UTC","OBJECT_TYPE":"PAYLOAD","OBJECT_NAME":"STARLINK-1073","NORAD_CAT_ID":"44914","ARG_OF_PERICENTER":"37.2391","PERIOD":"95.592","MEAN_ELEMENT_THEORY":"SGP4","RA_OF_ASC_NODE":"239.5624","TLE_LINE1":"1 44914U 20001A   21234.48788445  .00000548  00000-0  55676-4 0  9995","SEMIMAJOR_AXIS":"6925.363","MEAN_MOTION":"15.06395303","PERIAPSIS":"546.427","INCLINATION":"53.0547","BSTAR":"0.00005567600000","CENTER_NAME":"EARTH","OBJECT_ID":"2020-001A","GP_ID":"183242329","ELEMENT_SET_NO":"999","RCS_SIZE":"LARGE","TLE_LINE2":"2 44914  53.0547 239.5624 0001157  37.2391 322.8678 15.06395303 89613","MEAN_MOTION_DOT":"0.00000548","EPHEMERIS_TYPE":"0","COUNTRY_CODE":"US","MEAN_ANOMALY":"322.8678","REV_AT_EPOCH":"8961","DECAY_DATE":null},{"DECAY_DATE":null,"EPHEMERIS_TYPE":"0","COUNTRY_CODE":"US","MEAN_ANOMALY":"315.3722","REV_AT_EPOCH":"8965","RCS_SIZE":"LARGE","ELEMENT_SET_NO":"999","MEAN_MOTION_DOT":"0.00000445","TLE_LINE2":"2 44915  53.0545 238.5398 0000718  44.7325 315.3722 15.06399450 89659","OBJECT_ID":"2020-001B","GP_ID":"183270709","CENTER_NAME":"EARTH","BSTAR":"0.00004872100000","PERIAPSIS":"546.718","INCLINATION":"53.0545","SEMIMAJOR_AXIS":"6925.350","MEAN_MOTION":"15.06399450","TLE_LINE1":"1 44915U 20001B   21234.71641118  .00000445  00000-0  48721-4 0  9996","PERIOD":"95.592","MEAN_ELEMENT_THEORY":"SGP4","RA_OF_ASC_NODE":"238.5398","OBJECT_NAME":"STARLINK-1084","NORAD_CAT_ID":"44915","ARG_OF_PERICENTER":"44.7325","APOAPSIS":"547.712","TIME_SYSTEM":"UTC","OBJECT_TYPE":"PAYLOAD","ECCENTRICITY":"0.00007180","LAUNCH_DATE":"2020-01-07","CLASSIFICATION_TYPE":"U","REF_FRAME":"TEME","MEAN_MOTION_DDOT":"0.0000000000000","SITE":"AFETR","EPOCH":"2021-08-22T17:11:37.925952","FILE":"3101563"},{"CENTER_NAME":"EARTH","BSTAR":"0.01235800000000","PERIAPSIS":"361.083","INCLINATION":"53.0518","SEMIMAJOR_AXIS":"6739.886","MEAN_MOTION":"15.69003605","TLE_LINE1":"1 44916U 20001C   21234.70164114  .01645082  00000-0  12358-1 0  9999","DECAY_DATE":null,"COUNTRY_CODE":"US","EPHEMERIS_TYPE":"0","MEAN_ANOMALY":"292.6410","REV_AT_EPOCH":"8977","ELEMENT_SET_NO":"999","RCS_SIZE":"LARGE","MEAN_MOTION_DOT":"0.01645082","TLE_LINE2":"2 44916  53.0518 229.8349 0000991  67.4711 292.6410 15.69003605 89770","OBJECT_ID":"2020-001C","GP_ID":"183270960","ECCENTRICITY":"0.00009910","LAUNCH_DATE":"2020-01-07","CLASSIFICATION_TYPE":"U","MEAN_MOTION_DDOT":"0.0000000000000","REF_FRAME":"TEME","SITE":"AFETR","EPOCH":"2021-08-22T16:50:21.794496","FILE":"3101563","PERIOD":"91.778","MEAN_ELEMENT_THEORY":"SGP4","RA_OF_ASC_NODE":"229.8349","NORAD_CAT_ID":"44916","OBJECT_NAME":"STARLINK-1097","ARG_OF_PERICENTER":"67.4711","APOAPSIS":"362.419","OBJECT_TYPE":"PAYLOAD","TIME_SYSTEM":"UTC"},{"TLE_LINE1":"1 44917U 20001D   21234.72008038  .00000279  00000-0  37628-4 0  9996","SEMIMAJOR_AXIS":"6925.327","MEAN_MOTION":"15.06406985","PERIAPSIS":"546.582","INCLINATION":"53.0550","BSTAR":"0.00003762800000","CENTER_NAME":"EARTH","GP_ID":"183269708","OBJECT_ID":"2020-001D","ELEMENT_SET_NO":"999","RCS_SIZE":"LARGE","MEAN_MOTION_DOT":"0.00000279","TLE_LINE2":"2 44917  53.0550 238.5227 0000881  51.3068 308.8000 15.06406985 89655","EPHEMERIS_TYPE":"0","COUNTRY_CODE":"US","REV_AT_EPOCH":"8965","MEAN_ANOMALY":"308.8000","DECAY_DATE":null,"FILE":"3101563","MEAN_MOTION_DDOT":"0.0000000000000","REF_FRAME":"TEME","EPOCH":"2021-08-22T17:16:54.944832","SITE":"AFETR","LAUNCH_DATE":"2020-01-07","ECCENTRICITY":"0.00008810","CLASSIFICATION_TYPE":"U","APOAPSIS":"547.802","TIME_SYSTEM":"UTC","OBJECT_TYPE":"PAYLOAD","NORAD_CAT_ID":"44917","OBJECT_NAME":"STARLINK-1098","ARG_OF_PERICENTER":"51.3068","MEAN_ELEMENT_THEORY":"SGP4","PERIOD":"95.592","RA_OF_ASC_NODE":"238.5227"},{"PERIAPSIS":"546.816","BSTAR":"-0.00007023800000","INCLINATION":"53.0540","CENTER_NAME":"EARTH","TLE_LINE1":"1 44918U 20001E   21234.73113814 -.00001327  00000-0 -70238-4 0  9998","SEMIMAJOR_AXIS":"6925.369","MEAN_MOTION":"15.06393196","COUNTRY_CODE":"US","EPHEMERIS_TYPE":"0","REV_AT_EPOCH":"9039","MEAN_ANOMALY":"305.4260","DECAY_DATE":null,"GP_ID":"183269958","OBJECT_ID":"2020-001E","ELEMENT_SET_NO":"999","RCS_SIZE":"LARGE","TLE_LINE2":"2 44918  53.0540 238.4732 0000604  54.6785 305.4260 15.06393196 90393","MEAN_MOTION_DOT":"-0.00001327","LAUNCH_DATE":"2020-01-07","ECCENTRICITY":"0.00006040","CLASSIFICATION_TYPE":"U","FILE":"3101563","MEAN_MOTION_DDOT":"0.0000000000000","REF_FRAME":"TEME","EPOCH":"2021-08-22T17:32:50.335296","SITE":"AFETR","MEAN_ELEMENT_THEORY":"SGP4","PERIOD":"95.593","RA_OF_ASC_NODE":"238.4732","APOAPSIS":"547.653","OBJECT_TYPE":"PAYLOAD","TIME_SYSTEM":"UTC","OBJECT_NAME":"STARLINK-1099","NORAD_CAT_ID":"44918","ARG_OF_PERICENTER":"54.6785"},{"RA_OF_ASC_NODE":"232.5509","PERIOD":"93.375","MEAN_ELEMENT_THEORY":"SGP4","ARG_OF_PERICENTER":"69.6356","NORAD_CAT_ID":"44919","OBJECT_NAME":"STARLINK-1101","TIME_SYSTEM":"UTC","OBJECT_TYPE":"PAYLOAD","APOAPSIS":"440.535","CLASSIFICATION_TYPE":"U","ECCENTRICITY":"0.00012210","LAUNCH_DATE":"2020-01-07","SITE":"AFETR","EPOCH":"2021-08-22T08:38:55.711392","MEAN_MOTION_DDOT":"0.0000000000000","REF_FRAME":"TEME","FILE":"3101345","DECAY_DATE":null,"MEAN_ANOMALY":"290.4779","REV_AT_EPOCH":"8970","COUNTRY_CODE":"US","EPHEMERIS_TYPE":"0","TLE_LINE2":"2 44919  53.0536 232.5509 0001221  69.6356 290.4779 15.42171947 89701","MEAN_MOTION_DOT":"0.00000796","RCS_SIZE":"LARGE","ELEMENT_SET_NO":"999","OBJECT_ID":"2020-001F","GP_ID":"183242579","CENTER_NAME":"EARTH","BSTAR":"0.00002774000000","PERIAPSIS":"438.870","INCLINATION":"53.0536","MEAN_MOTION":"15.42171947","SEMIMAJOR_AXIS":"6817.837","TLE_LINE1":"1 44919U 20001F   21234.36036703  .00000796  00000-0  27740-4 0  9996"}];
